0 THORAD AGENA D DEB
1 04453U 69082EY  13281.83064356 -.00000184  00000-0 -74021-4 0  5259
2 04453 070.1326 170.0874 0036673 296.0001 131.6901 14.09291366255720
0 THORAD AGENA D DEB
1 04453U 69082EY  13283.04587119 -.00000175  00000-0 -68760-4 0  5265
2 04453 070.1324 167.4486 0036653 294.4340 177.0045 14.09291308255890
0 THORAD AGENA D DEB
1 04453U 69082EY  13284.12061869 -.00000153  00000-0 -56431-4 0  5273
2 04453 070.1320 165.1147 0036624 293.0722 229.5864 14.09290726256045
0 THORAD AGENA D DEB
1 04453U 69082EY  13285.80716475 -.00000121  00000-0 -38276-4 0  5282
2 04453 070.1315 161.4522 0036633 290.9328 146.0440 14.09290031256281
0 THORAD AGENA D DEB
1 04453U 69082EY  13287.10172389 -.00000062  00000-0 -43702-5 0  5293
2 04453 070.1312 158.6409 0036595 289.2964 233.8032 14.09289583256466
0 THORAD AGENA D DEB
1 04453U 69082EY  13288.78735424  .00000008  00000-0  35342-4 0  5303
2 04453 070.1307 154.9804 0036662 287.1592 145.6094 14.09289591256701
0 THORAD AGENA D DEB
1 04453U 69082EY  13290.77486781  .00000050  00000-0  59367-4 0  5315
2 04453 070.1304 150.6637 0036636 284.6783 148.9353 14.09289152256987
0 THORAD AGENA D DEB
1 04453U 69082EY  13292.27460767  .00000102  00000-0  88790-4 0  5329
2 04453 070.1303 147.4065 0036708 282.8037 197.6230 14.09288646257193
0 THORAD AGENA D DEB
1 04453U 69082EY  13293.76024630  .00000196  00000-0  14264-3 0  5337
2 04453 070.1304 144.1802 0036755 280.9794 174.7383 14.09288507257403
0 THORAD AGENA D DEB
1 04453U 69082EY  13294.96993594  .00000291  00000-0  19658-3 0  5343
2 04453 070.1305 141.5530 0036782 279.4937 191.8778 14.09288603257578
